# Made by eph2tle, compiled Oct  4 2021 08:54:50
# Run at Sat Oct 16 21:15:12 2021
#
# Max error 0.2   (Following TLEs should be good to at least 0.2 degrees)
# No updates (this is going into an heliocentric orbit)
#
#    The following TLEs (Two-Line Elements) were generated by fitting
# a numerically-integrated ephemeris,  based on the orbit given below,
# to the SDP4/SGP4 models.  Each TLE is good for the interval between
# its epoch and the epoch of the subsequent TLE (usually one day).
# The maximum deviation between the numerically integrated ephemerides
# and the TLE-based ephemeris, in kilometers,  is given for each TLE
# as the "worst residual".
#
#    This fitting is done using the 'eph2tle' code packaged with Find_Orb.
# The code has details on how the TLEs were computed :
#
#    https://github.com/Bill-Gray/find_orb/eph2tle.cpp
#
#    Be warned:  the error given is that between the numerically
# integrated ephems and the TLE model.  There will usually be at
# least some additional difference between the ephems and the actual
# motion of the satellite,  especially if the ephemerides are based
# on a short arc.  If the following orbital elements say something
# like "[based on] 10 observations 2015 Jan. 1-13",  and the TLEs
# are for 2015 May,  the extrapolation may be tenuous at best.  If
# your application requires a specific level of accuracy,  you may
# want to contact me;  I can give you some idea as to the fit of the
# underlying data (and possibly TLEs based on newer data).
#
#   You can usually find the underlying observational data,  and the
# fitted orbit,  residuals,  ephemerides,  and sometimes some comments
# about the object,  among the pages listed at
#
#    https://www.projectpluto.com/pluto/mpecs/pseudo.htm
#
#    WARNING:  for this object,  "normal" TLEs cannot be fitted.  (This
# usually means an object with an hyperbolic or nearly-parabolic orbit.)
# For this and similar cases,   an alternative model is used,  in which
# most of the traditional TLE data is replaced by six signed 8-digit hex
# numbers.  These six numbers are a state vector,  numerically integrated
# using a simplified force model.  This is necessary for objects at L2 or
# L1,  and sometimes for objects in high orbits where the SDP4/SGP4 model
# fails.  I'll be posting source code for this.  But be aware:  it's my
# own extension,  doesn't work with other code,  and is therefore used
# only when necessary.
#
#    Also,  if you use a TLE outside the "correct" time range (between
# its MJD and that of the next TLE),  all bets are off.  I've carefully
# computed and minimized the worst error over the "correct" time frame,
# but the ephemeris may (or may not) diverge wildly outside of it.
#
# Ephem range: 59503.500000 59533.500000 1.000000
# Created Sat Oct 16 21:15:03 2021
# Ephemeris start: 16 Oct 2021 12:00:00
# Ephemeris end:   15 Nov 2021 12:00:00
# Times are all TDT
# Positions/velocities are in ecliptic J2000
# Orbital elements:  Lucy-2
#    Perigee 2021 Oct 16.43045 +/- 0.000677 TT = 10:19:50 (JD 2459503.93045)
# Epoch 2021 Oct 17.0 TT = JDT 2459504.5                        Find_Orb
# q  6532.58943 +/- 6.05              (J2000 equator)
# H   28.9  G 0.15                    Peri.  239.56792 +/- 0.028
#                                     Node     7.04209 +/- 0.06
# e   1.4702936 +/- 0.00127           Incl.   30.53736 +/- 0.042
# 49 of 50 observations 2021 Oct. 16 (2.6 hr); mean residual 0".411
#
# 1 NoradU COSPAR   Epoch.epoch     dn/dt/2  d2n/dt2/6 BSTAR    T El# C
# 2 NoradU Inclina RAAscNode Eccent  ArgPeri MeanAno  MeanMotion Rev# C

# Worst residual: 4.08 km
# MJD 59503.500000 (2021 Oct 16 12:00)
Lucy-2
1 49328U 21093A   21289.49919926 +000RD041 +0001QRGQ -0000Z7E2H 13867
2 49328                          +0012IVDB +000BG1UC +0003VQW8     03

# Worst residual: 19.29 km
# MJD 59504.500000 (2021 Oct 17 12:00)
Lucy-2
1 49328U 21093A   21290.49919926 +008GQ2IQ +002JCL99 +000V6M5LH 13864
2 49328                          +000UWJAZ +000A22OJ +0003MKF5     00

# Worst residual: 2.42 km
# MJD 59505.500000 (2021 Oct 18 12:00)
Lucy-2
1 49328U 21093A   21291.49919926 +00FTU52B +004XOGRI +001QBSIFH 13866
2 49328                          +000UJLSZ +0009YAJ2 +0003LBBU     02

# Worst residual: 0.78 km
# MJD 59506.500000 (2021 Oct 19 12:00)
Lucy-2
1 49328U 21093A   21292.49919926 +00N5745S +007BJO55 +002LC0SQH 13865
2 49328                          +000UFS2N +0009XHQK +0003L5LS     07

# Worst residual: 0.77 km
# MJD 59507.500000 (2021 Oct 20 12:00)
Lucy-2
1 49328U 21093A   21293.49919926 +00UG1C4Y +009PCP6H +003GCMUFH 13869
2 49328                          +000UEVMB +0009XO4Y +0003LCZZ     04

# Worst residual: 0.91 km
# MJD 59508.500000 (2021 Oct 21 12:00)
Lucy-2
1 49328U 21093A   21294.49919926 +011QV0BZ +00C39X29 +004BG1KDH 13867
2 49328                          +000UFJ69 +0009YFGX +0003LSHT     05

# Worst residual: 1.07 km
# MJD 59509.500000 (2021 Oct 22 12:00)
Lucy-2
1 49328U 21093A   21295.49919926 +0191Z6UH +00EHFRPM +0056NZSZH 13866
2 49328                          +000UH9E7 +0009ZNP3 +0003MEQ6     05

# Worst residual: 1.17 km
# MJD 59510.500000 (2021 Oct 23 12:00)
Lucy-2
1 49328U 21093A   21296.49919926 +01GDM3OQ +00GVY5HP +0062225YH 13865
2 49328                          +000UJUCM +000A1BT4 +0003N7FF     03

# Worst residual: 1.20 km
# MJD 59511.500000 (2021 Oct 24 12:00)
Lucy-2
1 49328U 21093A   21297.49919926 +01NPYJT5 +00JAWVRF +006XNT04H 13866
2 49328                          +000UN5N0 +000A3FY7 +0003O6R0     02

# Worst residual: 1.31 km
# MJD 59512.500000 (2021 Oct 25 12:00)
Lucy-2
1 49328U 21093A   21298.49919926 +01V36HLS +00LQFVJZ +007TIUW7H 13865
2 49328                          +000UR4E2 +000A60RG +0003PD15     09

# Worst residual: 1.53 km
# MJD 59513.500000 (2021 Oct 26 12:00)
Lucy-2
1 49328U 21093A   21299.49919926 +022HFA6T +00O6N8KN +008POXRJH 13864
2 49328                          +000UVOGS +000A934C +0003QQP5     02

# Worst residual: 1.82 km
# MJD 59514.500000 (2021 Oct 27 12:00)
Lucy-2
1 49328U 21093A   21300.49919926 +029WTTY6 +00QNNAMR +009M7VGHH 13868
2 49328                          +000V0S39 +000ACO0J +0003SC86     07

# Worst residual: 2.15 km
# MJD 59515.500000 (2021 Oct 28 12:00)
Lucy-2
1 49328U 21093A   21301.49919926 +02HDIMT5 +00T5KMFZ +00AJ5M2MH 13865
2 49328                          +000V6DO0 +000AGSIE +0003U64J     07

# Worst residual: 2.47 km
# MJD 59516.500000 (2021 Oct 29 12:00)
Lucy-2
1 49328U 21093A   21302.49919926 +02OVLT7R +00VOK25M +00BGK88PH 13869
2 49328                          +000VCFNK +000ALHQ5 +0003W8XP     04

# Worst residual: 2.73 km
# MJD 59517.500000 (2021 Oct 30 12:00)
Lucy-2
1 49328U 21093A   21303.49919926 +02WF746K +00Y8QPSE +00CEHXEHH 13865
2 49328                          +000VIWGW +000AQSTP +0003YL88     07

# Worst residual: 2.95 km
# MJD 59518.500000 (2021 Oct 31 12:00)
Lucy-2
1 49328U 21093A   21304.49919926 +0340DWIC +010U9ZJJ +00DD122NH 13861
2 49328                          +000VPQDZ +000AWQZS +000417LU     00

# Worst residual: 3.15 km
# MJD 59519.500000 (2021 Nov  1 12:00)
Lucy-2
1 49328U 21093A   21305.49919926 +03BN934K +013HBJRS +00EC8412H 13868
2 49328                          +000VWVG1 +000B3DDT +000444OF     04

# Worst residual: 3.40 km
# MJD 59520.500000 (2021 Nov  2 12:00)
Lucy-2
1 49328U 21093A   21306.49919926 +03JBV2O1 +01661C97 +00FC5Q71H 13860
2 49328                          +000W49D0 +000BAP02 +00047D0N     04

# Worst residual: 3.71 km
# MJD 59521.500000 (2021 Nov  3 12:00)
Lucy-2
1 49328U 21093A   21307.49919926 +03R29OL7 +018WLIB6 +00GCWO0SH 13868
2 49328                          +000WBTIO +000BIQK2 +0004AX32     09

# Worst residual: 4.02 km
# MJD 59522.500000 (2021 Nov  4 12:00)
Lucy-2
1 49328U 21093A   21308.49919926 +03YUI2K6 +01BP6BFP +00HEJS40H 13865
2 49328                          +000WJH1Y +000BRIA5 +0004ET4S     02

# Worst residual: 4.21 km
# MJD 59523.500000 (2021 Nov  5 12:00)
Lucy-2
1 49328U 21093A   21309.49919926 +046OKP5Y +01EJY0LE +00IH5Y2BH 13867
2 49328                          +000WR52G +000C0ZT1 +0004J14M     05

# Worst residual: 4.22 km
# MJD 59524.500000 (2021 Nov  6 12:00)
Lucy-2
1 49328U 21093A   21310.49919926 +04EKHCUO +01HH2OW3 +00JKTZTWH 13866
2 49328                          +000WYQXB +000CB65O +0004NKQ3     06

# Worst residual: 4.13 km
# MJD 59525.500000 (2021 Nov  7 12:00)
Lucy-2
1 49328U 21093A   21311.49919926 +04MI79G5 +01KGQ4XK +00KPMN5HH 13862
2 49328                          +000X68IX +000CLZWY +0004SFB6     02

# Worst residual: 4.09 km
# MJD 59526.500000 (2021 Nov  8 12:00)
Lucy-2
1 49328U 21093A   21312.49919926 +04UHP7JV +01NJ1S1Z +00LVMFQWH 13862
2 49328                          +000XDKGA +000CXFH6 +0004XK4H     02

# Worst residual: 4.24 km
# MJD 59527.500000 (2021 Nov  9 12:00)
Lucy-2
1 49328U 21093A   21313.49919926 +052IXQEL +01QO6NYA +00N2VQM7H 13862
2 49328                          +000XKPXS +000D9FBR +00052YE6     00

# Worst residual: 4.60 km
# MJD 59528.500000 (2021 Nov 10 12:00)
Lucy-2
1 49328U 21093A   21314.49919926 +05ALV8VR +01TW9IBH +00OBGQEVH 13863
2 49328                          +000XROPF +000DLY82 +00058LFO     01

# Worst residual: 5.09 km
# MJD 59529.500000 (2021 Nov 11 12:00)
Lucy-2
1 49328U 21093A   21315.49919926 +05IQG4TV +01X7ERM1 +00PLFGHRH 13869
2 49328                          +000XYGRH +000DYZ9W +0005EGPM     02

# Worst residual: 5.61 km
# MJD 59530.500000 (2021 Nov 12 12:00)
Lucy-2
1 49328U 21093A   21316.49919926 +05QWMSQM +020LQQ0L +00QWTU8KH 13867
2 49328                          +000Y5285 +000ECHWW +0005KJU5     08

# Worst residual: 6.05 km
# MJD 59531.500000 (2021 Nov 13 12:00)
Lucy-2
1 49328U 21093A   21317.49919926 +05Z4DO56 +0243DK1E +00S9PQAEH 13862
2 49328                          +000YBH7F +000EQHUB +0005QUK5     05

# Worst residual: 6.41 km
# MJD 59532.500000 (2021 Nov 14 12:00)
Lucy-2
1 49328U 21093A   21318.49919926 +067DN79X +027OFEIQ +00TO4XL3H 13869
2 49328                          +000YHPQV +000F4YYN +0005XCQE     07
Avg worst resid: 3.65 km
Worst residual in entire run: 19.29 km on MJD 59504.5
       1     3     10    30    100   300   1K    3K    10K   km
     3    11    15     1     0     0     0     0     0     0
